STARLINK-31222          
1 58828U 24017C   25286.68329902  .00000803  00000+0  39245-4 0  9994
2 58828  53.1621 166.8116 0001350  73.7354 286.3795 15.30195691 97554
STARLINK-31258          
1 58829U 24017D   25285.40971731 -.00000705  00000+0 -11673-4 0  9995
2 58829  53.1617 173.0824 0001169  90.1427 269.9708 15.30196533 97353
STARLINK-31253          
1 58830U 24017E   25286.95829163 -.00001795  00000+0 -48525-4 0  9995
2 58830  53.1575 165.6835 0001142  71.8153 288.2972 15.30180041 97590
STARLINK-31232          
1 58831U 24017F   25286.95406585 -.00000906  00000+0 -18465-4 0  9998
2 58831  53.1632 165.6572 0001328  76.9581 283.1568 15.30184963 97592
STARLINK-31263          
1 58832U 24017G   25286.93976240 -.00000462  00000+0 -15791-5 0  9994
2 58832  53.1581 156.3368 0000944  90.6317 269.4797 15.39609222 97836
STARLINK-31171          
1 58834U 24017J   25286.87238450 -.00000075  00000+0  96168-5 0  9999
2 58834  53.1589 142.7180 0001510  83.1860 276.9312 15.30190865 97900
STARLINK-31246          
1 58835U 24017K   25286.96778244 -.00000819  00000+0 -15545-4 0  9996
2 58835  53.1611 165.7405 0001016  78.3374 281.7741 15.30188220 97596
STARLINK-31251          
1 58836U 24017L   25286.38732827 -.00006129  00000+0 -19489-3 0  9990
2 58836  53.1601 168.5191 0000946  90.7916 269.3193 15.30211916 97615
STARLINK-31249          
1 58838U 24017N   25286.65493203 -.00001393  00000+0 -34947-4 0  9999
2 58838  53.1604 167.3437 0001380  93.4252 266.6907 15.30177945 97544
STARLINK-31250          
1 58839U 24017P   25286.93047509 -.00000802  00000+0 -10053-4 0  9991
2 58839  53.1556 156.2749 0001687  84.4655 275.6542 15.39612343 97675
STARLINK-31248          
1 58840U 24017Q   25286.43525081  .00000108  00000+0  15790-4 0  9994
2 58840  53.1594 180.8680 0001374  74.1210 285.9943 15.30199154 97447
STARLINK-31236          
1 58841U 24017R   25286.92251882 -.00002544  00000+0 -73825-4 0  9995
2 58841  53.1598 166.1709 0001580  94.0493 266.0688 15.30181577 97585
STARLINK-31228          
1 58842U 24017S   25286.39683537 -.00000503  00000+0 -48646-5 0  9990
2 58842  53.1609 168.5775 0001787  89.7896 270.3310 15.30185107 97500
STARLINK-31280          
1 58843U 24017T   25286.92568261 -.00000379  00000+0 -67164-6 0  9994
2 58843  53.1628 166.1904 0001183  81.4744 278.6391 15.30187597 97584
STARLINK-31269          
1 58844U 24017U   25286.23855602 -.00000210  00000+0  50610-5 0  9997
2 58844  53.1614 259.3432 0001624  90.2823 269.8364 15.30182997 96194
STARLINK-31264          
1 58845U 24017V   25286.90636356 -.00002899  00000+0 -85799-4 0  9996
2 58845  53.1606 255.6995 0001415  94.1896 265.9267 15.30198385 96300
STARLINK-31273          
1 58846U 24017W   25286.92884960 -.00003600  00000+0 -10954-3 0  9996
2 58846  53.1577 166.2086 0001324  77.9626 282.1523 15.30178882 97582
STARLINK-31262          
1 58847U 24017X   25286.91374143  .00000437  00000+0  26875-4 0  9996
2 58847  53.1612 255.7423 0001474  97.2144 262.9025 15.30196636 96307
AAC-HSI-SAT3            
1 58848U 23174DH  25286.91280777  .00004508  00000+0  25123-3 0  9996
2 58848  97.3766 349.2123 0012112 137.9045 222.3120 15.14028617106614
2024-018A               
1 58849U 24018A   25286.99408934  .00004769  00000+0  52789-3 0  9997
2 58849  58.6898  11.5903 0436876 174.6872 185.9022 14.38117428 89742
2024-018B               
1 58850U 24018B   25286.97073127  .00007323  00000+0  77222-3 0  9997
2 58850  58.6966   4.9190 0422652 176.2877 184.1463 14.41674382 89868
2024-018C               
1 58851U 24018C   25286.92959138  .00004832  00000+0  53175-3 0  9991
2 58851  58.6868   7.3807 0430035 176.1848 184.2641 14.39519520 89816
