OBJECT_NAME,OBJECT_ID,NORAD_CAT_ID,EPOCH,MEAN_MOTION,ECCENTRICITY,INCLINATION,RA_OF_ASC_NODE,ARG_OF_PERICENTER,MEAN_ANOMALY,MEAN_MOTION_DOT,MEAN_MOTION_DDOT,REV_AT_EPOCH,BSTAR,orbital_period_min,altitude_estimated,drag_index,energy_index,orbit_type,orbit_family,anomaly_score,anomaly_flag
STARLINK-31222,2024-017C,58828,2025-10-13 16:23:57.035328,15.30195691,0.00013506,53.1621,166.8116,73.7354,286.3795,8.03e-06,0.0,9755,3.9245032e-05,94.10561070518659,482.3649353468127,5.3004340219200005e-09,0.0021353843475588664,LEO,LEO,-0.27675342150528426,1
STARLINK-31258,2024-017D,58829,2025-10-12 09:49:59.575584,15.30196533,0.00011695,53.1617,173.0824,90.1427,269.9708,-7.05e-06,0.0,9735,-1.1673457e-05,94.10555892299881,482.3624212759378,-1.36521079615e-09,0.002135381997542921,LEO,LEO,-0.28217810831352813,1
STARLINK-31253,2024-017E,58830,2025-10-13 22:59:56.396832,15.30180041,0.00011425,53.1575,165.6835,71.8153,288.2972,-1.795e-05,0.0,9759,-4.8525256e-05,94.10657317546334,482.41166404345313,-5.544010498e-09,0.002135428027302478,LEO,LEO,-0.2739642642304961,1
STARLINK-31232,2024-017F,58831,2025-10-13 22:53:51.289440,15.30184963,0.00013284,53.1632,165.6572,76.9581,283.1568,-9.06e-06,0.0,9759,-1.8465086e-05,94.10627047182662,482.3969675585586,-2.45290202424e-09,0.002135414289669316,LEO,LEO,-0.2782364322986927,1
STARLINK-31263,2024-017G,58832,2025-10-13 22:33:15.471360,15.39609222,9.442e-05,53.1581,156.3368,90.6317,269.4797,-4.62e-06,0.0,9783,-1.579128e-06,93.53022698379239,454.40100601825634,-1.4910126575999998e-10,0.0021093516974439925,LEO,LEO,-0.27594956670303883,1
STARLINK-31171,2024-017J,58834,2025-10-13 20:56:14.020800,15.30190865,0.00015101,53.1589,142.718,83.186,276.9312,-7.5e-07,0.0,9790,9.616789e-06,94.10590750063065,482.3793450184203,1.4522313068900001e-09,0.0021353978169650007,LEO,LEO,-0.2819941176538965,1
STARLINK-31246,2024-017K,58835,2025-10-13 23:13:36.402816,15.3018822,0.0001016,53.1611,165.7405,78.3374,281.7741,-8.19e-06,0.0,9759,-1.5544761e-05,94.10607016697593,482.3872426016096,-1.5793477176e-09,0.002135405199236062,LEO,LEO,-0.27900003480788504,1
STARLINK-31251,2024-017L,58836,2025-10-13 09:17:45.162528,15.30211916,9.465e-05,53.1601,168.5191,90.7916,269.3193,-6.129e-05,0.0,9761,-0.00019489261,94.10461289336868,482.31649062208,-1.84465855365e-08,0.0021353390643833845,LEO,LEO,-0.27893747061537494,1
STARLINK-31249,2024-017N,58838,2025-10-13 15:43:06.127392,15.30177945,0.00013805,53.1604,167.3437,93.4252,266.6907,-1.393e-05,0.0,9754,-3.4946897e-05,94.1067020803257,482.4179224648424,-4.82441913085e-09,0.0021354338774197475,LEO,LEO,-0.2817989142842281,1
STARLINK-31250,2024-017P,58839,2025-10-13 22:19:53.047776,15.39612343,0.00016874,53.1556,156.2749,84.4655,275.6542,-8.02e-06,0.0,9767,-1.0052858e-05,93.53003738552128,454.3917820150691,-1.69631925892e-09,0.0021093431455770175,LEO,LEO,-0.27579648677614793,1
STARLINK-31248,2024-017Q,58840,2025-10-13 10:26:45.669984,15.30199154,0.00013741,53.1594,180.868,74.121,285.9943,1.08e-06,0.0,9744,1.5789868e-05,94.1053977343919,482.3545954239953,2.16968576188e-09,0.002135374682375601,LEO,LEO,-0.2761643317211694,1
STARLINK-31236,2024-017R,58841,2025-10-13 22:08:25.626048,15.30181577,0.00015806,53.1598,166.1709,94.0493,266.0688,-2.544e-05,0.0,9758,-7.382461e-05,94.10647871105562,482.4070777284551,-1.16687178566e-08,0.0021354237402089033,LEO,LEO,-0.2810557074823465,1
STARLINK-31228,2024-017S,58842,2025-10-13 09:31:26.575968,15.30185107,0.00017877,53.1609,168.5775,89.7896,270.331,-5.03e-06,0.0,9750,-4.864572e-06,94.10626161583731,482.39653759350585,-8.6963953644e-10,0.002135413887757623,LEO,LEO,-0.2819081460154355,1
STARLINK-31280,2024-017T,58843,2025-10-13 22:12:58.977504,15.30187597,0.00011836,53.1628,166.1904,81.4744,278.6391,-3.79e-06,0.0,9758,-6.7164e-07,94.10610848128577,482.38910279181164,-7.94953104e-11,0.002135406938052548,LEO,LEO,-0.28128881682934376,1
STARLINK-31269,2024-017U,58844,2025-10-13 05:43:31.240128,15.30182997,0.00016247,53.1614,259.3432,90.2823,269.8364,-2.1e-06,0.0,9619,5.060988e-06,94.10639138084737,482.40283778261255,8.222587203600001e-10,0.002135419776891692,LEO,LEO,-0.2812836444667754,1
STARLINK-31264,2024-017V,58845,2025-10-13 21:45:09.811584,15.30198385,0.00014155,53.1606,255.6995,94.1896,265.9267,-2.899e-05,0.0,9630,-8.5799365e-05,94.10544502698583,482.3568915224596,-1.214490011575e-08,0.002135376828637889,LEO,LEO,-0.2792686157193588,1
STARLINK-31273,2024-017W,58846,2025-10-13 22:17:32.605440,15.30178882,0.00013246,53.1577,166.2086,77.9626,282.1523,-3.6e-05,0.0,9758,-0.00010953628,94.10664445439654,482.4151246859574,-1.4509175648799998e-08,0.0021354312621687413,LEO,LEO,-0.2775472805513346,1
STARLINK-31262,2024-017X,58847,2025-10-13 21:55:47.259552,15.30196636,0.00014747,53.1612,255.7423,97.2144,262.9025,4.37e-06,0.0,9630,2.6875243e-05,94.10555258860208,482.36211373536025,3.96329208521e-09,0.0021353817100709283,LEO,LEO,-0.28075850727275503,1
AAC-HSI-SAT3,2023-174DH,58848,2025-10-13 21:54:26.591328,15.14028617,0.00121124,97.3766,349.2123,137.9045,222.312,4.508e-05,0.0,10661,0.00025123089,95.11048759787082,531.0661723209087,3.0430090320359997e-07,0.0021812318796066597,LEO,LEO,-0.2273868318933196,1
2024-018A,2024-018A,58849,2025-10-13 23:51:29.318976,14.38117428,0.0436876,58.6898,11.5903,174.6872,185.9022,4.769e-05,0.0,8974,0.00052788693,100.1309053046258,771.8622539136804,2.3062113043067996e-05,0.0024175825128095914,LEO,LEO,-0.06415447686864229,1
2024-018B,2024-018B,58850,2025-10-13 23:17:51.181728,14.41674382,0.04226522,58.6966,4.919,176.2877,184.1463,7.323e-05,0.0,8986,0.00077221629,99.88385851750537,760.1086560571521,3.26378913844338e-05,0.0024056677257776405,LEO,LEO,-0.06090041658406509,1
2024-018C,2024-018C,58851,2025-10-13 22:18:36.695232,14.3951952,0.04300357,58.6868,7.3807,176.1848,184.2641,4.832e-05,0.0,8981,0.00053174673,100.03337780372718,767.223402153988,2.2867007725826102e-05,0.0024128753556190243,LEO,LEO,-0.06351550372061154,1
